[{"OBJECT_NAME":"KUIPER-00092","OBJECT_ID":"2025-151X","EPOCH":"2026-03-08T23:51:42.351552","MEAN_MOTION":14.7992332,"ECCENTRICITY":9.472e-5,"INCLINATION":51.9004,"RA_OF_ASC_NODE":293.6718,"ARG_OF_PERICENTER":52.0654,"MEAN_ANOMALY":308.0393,"EPHEMERIS_TYPE":0,"CLASSIFICATION_TYPE":"U","NORAD_CAT_ID":64837,"ELEMENT_SET_NO":999,"REV_AT_EPOCH":3655,"BSTAR":0.00049486471,"MEAN_MOTION_DOT":3.552e-5,"MEAN_MOTION_DDOT":0},{"OBJECT_NAME":"NOAA 16 DEB","OBJECT_ID":"2000-055FZ","EPOCH":"2026-03-08T22:07:52.896000","MEAN_MOTION":14.75524151,"ECCENTRICITY":0.00297301,"INCLINATION":98.9229,"RA_OF_ASC_NODE":320.3097,"ARG_OF_PERICENTER":242.5137,"MEAN_ANOMALY":117.3046,"EPHEMERIS_TYPE":0,"CLASSIFICATION_TYPE":"U","NORAD_CAT_ID":41273,"ELEMENT_SET_NO":999,"REV_AT_EPOCH":53554,"BSTAR":0.0040002198,"MEAN_MOTION_DOT":0.00027477,"MEAN_MOTION_DDOT":0}]
